[{"OBJECT_NAME":"STARLINK-3086","OBJECT_ID":"2021-082BA","EPOCH":"2026-03-09T21:14:26.885760","MEAN_MOTION":14.9832742,"ECCENTRICITY":0.00029477,"INCLINATION":69.9985,"RA_OF_ASC_NODE":293.9514,"ARG_OF_PERICENTER":264.359,"MEAN_ANOMALY":95.7233,"EPHEMERIS_TYPE":0,"CLASSIFICATION_TYPE":"U","NORAD_CAT_ID":49178,"ELEMENT_SET_NO":999,"REV_AT_EPOCH":24716,"BSTAR":-6.826906e-6,"MEAN_MOTION_DOT":-1.74e-6,"MEAN_MOTION_DDOT":0},{"OBJECT_NAME":"CZ-4B DEB","OBJECT_ID":"1999-057BZ","EPOCH":"2026-03-09T10:47:31.286688","MEAN_MOTION":14.9004764,"ECCENTRICITY":0.00449145,"INCLINATION":98.5631,"RA_OF_ASC_NODE":129.7133,"ARG_OF_PERICENTER":286.2462,"MEAN_ANOMALY":73.3815,"EPHEMERIS_TYPE":0,"CLASSIFICATION_TYPE":"U","NORAD_CAT_ID":26187,"ELEMENT_SET_NO":999,"REV_AT_EPOCH":39955,"BSTAR":0.00034061798,"MEAN_MOTION_DOT":3.283e-5,"MEAN_MOTION_DDOT":0}]
